[{"OBJECT_NAME":"GAOFEN-9 02","OBJECT_ID":"2020-034B","EPOCH":"2026-03-10T00:01:23.433024","MEAN_MOTION":15.24736529,"ECCENTRICITY":0.00138652,"INCLINATION":97.5615,"RA_OF_ASC_NODE":225.1997,"ARG_OF_PERICENTER":60.5372,"MEAN_ANOMALY":299.7247,"EPHEMERIS_TYPE":0,"CLASSIFICATION_TYPE":"U","NORAD_CAT_ID":45625,"ELEMENT_SET_NO":999,"REV_AT_EPOCH":32104,"BSTAR":0.00036092627,"MEAN_MOTION_DOT":8.888e-5,"MEAN_MOTION_DDOT":0},{"OBJECT_NAME":"STARLINK-30819","OBJECT_ID":"2023-167E","EPOCH":"2026-03-09T05:22:11.994816","MEAN_MOTION":15.27582538,"ECCENTRICITY":9.546e-5,"INCLINATION":42.9992,"RA_OF_ASC_NODE":146.0509,"ARG_OF_PERICENTER":271.5857,"MEAN_ANOMALY":88.4885,"EPHEMERIS_TYPE":0,"CLASSIFICATION_TYPE":"U","NORAD_CAT_ID":58179,"ELEMENT_SET_NO":999,"REV_AT_EPOCH":13091,"BSTAR":-4.9855713e-5,"MEAN_MOTION_DOT":-1.634e-5,"MEAN_MOTION_DDOT":0}]
